NORAD_CAT_ID,OBJECT_NAME,OBJECT_TYPE,EPOCH,MEAN_MOTION,ECCENTRICITY,INCLINATION,RA_OF_ASC_NODE,ARG_OF_PERICENTER,MEAN_ANOMALY,BSTAR,MEAN_MOTION_DOT,MEAN_MOTION_DDOT,TLE_LINE0,TLE_LINE1,TLE_LINE2,SEMIMAJOR_AXIS,PERIOD,APOGEE,PERIGEE,DECAYED
53777.0,STARLINK-4664,PAYLOAD,2024-04-20 04:31:05,15.08842828,0.0001543,53.2163,125.0765,88.2256,271.8913,0.00025172,3.721e-05,0.0,0 STARLINK-4664,1 53777U 22111E   24111.18826379  .00003721  00000-0  25172-3 0  9992,2 53777  53.2163 125.0765 0001543  88.2256 271.8913 15.08842828 88947,6917.872,95.437,540.804,538.669,0.0
53777.0,STARLINK-4664,PAYLOAD,2024-04-20 07:41:52,15.08847729,0.0001623,53.2167,124.4818,86.0223,274.0954,0.0002971,4.444e-05,0.0,0 STARLINK-4664,1 53777U 22111E   24111.32074235  .00004444  00000-0  29710-3 0  9999,2 53777  53.2167 124.4818 0001623  86.0223 274.0954 15.08847729 89779,6917.857,95.437,540.845,538.599,0.0
53777.0,STARLINK-4664,PAYLOAD,2024-04-21 04:21:53,15.0882839,0.0001588,53.2162,120.6137,109.5405,250.5759,-0.00012946,-2.347e-05,0.0,0 STARLINK-4664,1 53777U 22111E   24112.18187144 -.00002347  00000-0 -12946-3 0  9993,2 53777  53.2162 120.6137 0001588 109.5405 250.5759 15.08828390 89099,6917.916,95.438,540.879,538.682,0.0
53777.0,STARLINK-4664,PAYLOAD,2024-04-21 07:32:40,15.08826278,0.0001511,53.2161,120.0192,106.9643,253.1515,-0.00014881,-2.655e-05,0.0,0 STARLINK-4664,1 53777U 22111E   24112.31435332 -.00002655  00000-0 -14881-3 0  9995,2 53777  53.2161 120.0192 0001511 106.9643 253.1515 15.08826278 89928,6917.922,95.438,540.833,538.742,0.0
53777.0,STARLINK-4664,PAYLOAD,2024-04-22 04:12:40,15.08846781,0.0001267,53.2159,116.1564,97.5213,262.5923,0.00030514,4.573e-05,0.0,0 STARLINK-4664,1 53777U 22111E   24113.17546994  .00004573  00000-0  30514-3 0  9997,2 53777  53.2159 116.1564 0001267  97.5213 262.5923 15.08846781 89243,6917.86,95.437,540.601,538.848,0.0
53777.0,STARLINK-4664,PAYLOAD,2024-04-22 05:48:03,15.08849074,0.0001308,53.2157,115.8586,103.7113,256.4025,0.00047263,7.244e-05,0.0,0 STARLINK-4664,1 53777U 22111E   24113.24171005  .00007244  00000-0  47263-3 0  9999,2 53777  53.2157 115.8586 0001308 103.7113 256.4025 15.08849074 90061,6917.853,95.437,540.623,538.813,0.0
53777.0,STARLINK-4664,PAYLOAD,2024-04-23 04:03:27,15.08849233,0.0001516,53.2162,111.6976,110.574,249.5414,0.00018518,2.661e-05,0.0,0 STARLINK-4664,1 53777U 22111E   24114.16906712  .00002661  00000-0  18518-3 0  9991,2 53777  53.2162 111.6976 0001516 110.5740 249.5414 15.08849233 89393,6917.852,95.437,540.766,538.668,0.0
53777.0,STARLINK-4664,PAYLOAD,2024-04-23 07:14:13,15.08848436,0.0001213,53.2154,111.1015,99.9513,260.1616,0.00026648,3.957e-05,0.0,0 STARLINK-4664,1 53777U 22111E   24114.30154792  .00003957  00000-0  26648-3 0  9992,2 53777  53.2154 111.1015 0001213  99.9513 260.1616 15.08848436 90226,6917.855,95.437,540.559,538.88,0.0
53777.0,STARLINK-4664,PAYLOAD,2024-04-24 03:54:14,15.08848292,0.0001405,53.2168,107.2361,105.2993,254.8154,5.8899e-05,6.5e-06,0.0,0 STARLINK-4664,1 53777U 22111E   24115.16266467  .00000650  00000-0  58899-4 0  9991,2 53777  53.2168 107.2361 0001405 105.2993 254.8154 15.08848292 89547,6917.855,95.437,540.692,538.748,0.0
53777.0,STARLINK-4664,PAYLOAD,2024-04-24 07:05:00,15.08851911,0.0001402,53.2164,106.641,100.3013,259.8137,0.00010529,1.389e-05,0.0,0 STARLINK-4664,1 53777U 22111E   24115.29514224  .00001389  00000-0  10529-3 0  9999,2 53777  53.2164 106.6410 0001402 100.3013 259.8137 15.08851911 90378,6917.844,95.437,540.679,538.739,0.0
53777.0,STARLINK-4664,PAYLOAD,2024-04-24 22:58:51,15.08842861,0.0001975,53.2187,103.6687,115.1304,244.9893,3.2107e-05,2.23e-06,0.0,0 STARLINK-4664,1 53777U 22111E   24115.95754594  .00000223  00000-0  32107-4 0  9991,2 53777  53.2187 103.6687 0001975 115.1304 244.9893 15.08842861 90477,6917.872,95.437,541.103,538.37,0.0
53777.0,STARLINK-4664,PAYLOAD,2024-04-25 05:20:24,15.08847602,0.0001942,53.2189,102.4848,66.3989,293.7207,0.00011717,1.577e-05,0.0,0 STARLINK-4664,1 53777U 22111E   24116.22250614  .00001577  00000-0  11717-3 0  9992,2 53777  53.2189 102.4848 0001942  66.3989 293.7207 15.08847602 89708,6917.857,95.437,541.066,538.379,0.0
53777.0,STARLINK-4664,PAYLOAD,2024-04-25 08:31:09,15.08858301,0.0001673,53.2181,101.8833,88.4422,271.6762,0.00021243,3.096e-05,0.0,0 STARLINK-4664,1 53777U 22111E   24116.35497473  .00003096  00000-0  21243-3 0  9995,2 53777  53.2181 101.8833 0001673  88.4422 271.6762 15.08858301 89726,6917.824,95.436,540.847,538.532,0.0
53777.0,STARLINK-4664,PAYLOAD,2024-04-25 22:49:39,15.08837948,0.0001183,53.2177,99.2079,81.1521,278.9605,-5.6148e-05,-1.181e-05,0.0,0 STARLINK-4664,1 53777U 22111E   24116.95114682 -.00001181  00000-0 -56148-4 0  9997,2 53777  53.2177  99.2079 0001183  81.1521 278.9605 15.08837948 90620,6917.887,95.438,540.57,538.933,0.0
53777.0,STARLINK-4664,PAYLOAD,2024-04-26 05:11:11,15.0884246,0.0001624,53.2181,98.0185,90.6624,269.4554,5.2428e-06,-2.05e-06,0.0,0 STARLINK-4664,1 53777U 22111E   24117.21610623 -.00000205  00000-0  52428-5 0  9996,2 53777  53.2181  98.0185 0001624  90.6624 269.4554 15.08842460 89855,6917.873,95.437,540.861,538.614,0.0
53777.0,STARLINK-4664,PAYLOAD,2024-04-26 08:21:57,15.08847013,0.0001505,53.2173,97.4217,93.2981,266.8183,1.7195e-05,-1.4e-07,0.0,0 STARLINK-4664,1 53777U 22111E   24117.34858172 -.00000014  00000-0  17195-4 0  9992,2 53777  53.2173  97.4217 0001505  93.2981 266.8183 15.08847013 90689,6917.859,95.437,540.765,538.683,0.0
53777.0,STARLINK-4664,PAYLOAD,2024-04-26 16:18:53,15.08841862,0.0001667,53.2175,95.9382,75.8393,284.2785,-3.8803e-05,-9.06e-06,0.0,0 STARLINK-4664,1 53777U 22111E   24117.67978760 -.00000906  00000-0 -38803-4 0  9994,2 53777  53.2175  95.9382 0001667  75.8393 284.2785 15.08841862 90733,6917.875,95.437,540.893,538.586,0.0
53777.0,STARLINK-4664,PAYLOAD,2024-04-27 08:12:44,15.0885267,0.0001623,53.2176,92.9575,111.5562,248.5604,-3.7128e-05,-8.79e-06,0.0,0 STARLINK-4664,1 53777U 22111E   24118.34217937 -.00000879  00000-0 -37128-4 0  9999,2 53777  53.2176  92.9575 0001623 111.5562 248.5604 15.08852670 90027,6917.842,95.437,540.829,538.584,0.0
53777.0,STARLINK-4664,PAYLOAD,2024-04-27 22:31:13,15.08832095,0.0001367,53.2173,90.2838,106.2997,253.8146,7.5609e-06,-1.68e-06,0.0,0 STARLINK-4664,1 53777U 22111E   24118.93835425 -.00000168  00000-0  75609-5 0  9999,2 53777  53.2173  90.2838 0001367 106.2997 253.8146 15.08832095 90923,6917.905,95.438,540.715,538.824,0.0
53777.0,STARLINK-4664,PAYLOAD,2024-04-28 04:52:46,15.08829398,0.0001319,53.2175,89.0965,88.2357,271.8786,1.5175e-05,-4.6e-07,0.0,0 STARLINK-4664,1 53777U 22111E   24119.20331818 -.00000046  00000-0  15175-4 0  9993,2 53777  53.2175  89.0965 0001319  88.2357 271.8786 15.08829398 90155,6917.913,95.438,540.69,538.865,0.0
53777.0,STARLINK-4664,PAYLOAD,2024-04-28 14:25:05,15.08832225,0.0001327,53.2171,87.3123,81.8177,278.2966,5.7383e-05,6.25e-06,0.0,0 STARLINK-4664,1 53777U 22111E   24119.60075700  .00000625  00000-0  57383-4 0  9991,2 53777  53.2171  87.3123 0001327  81.8177 278.2966 15.08832225 91027,6917.904,95.438,540.687,538.851,0.0
53777.0,STARLINK-4664,PAYLOAD,2024-04-28 22:22:00,15.088364,0.0001234,53.2175,85.8244,86.4402,273.6732,7.9793e-05,9.82e-06,0.0,0 STARLINK-4664,1 53777U 22111E   24119.93195524  .00000982  00000-0  79793-4 0  9999,2 53777  53.2175  85.8244 0001234  86.4402 273.6732 15.08836400 91071,6917.891,95.438,540.61,538.903,0.0
53777.0,STARLINK-4664,PAYLOAD,2024-04-29 04:43:33,15.08844421,0.0001287,53.2171,84.6363,82.4865,277.6274,0.00019848,2.873e-05,0.0,0 STARLINK-4664,1 53777U 22111E   24120.19691179  .00002873  00000-0  19848-3 0  9991,2 53777  53.2171  84.6363 0001287  82.4865 277.6274 15.08844421 90305,6917.867,95.437,540.622,538.842,0.0
53777.0,STARLINK-4664,PAYLOAD,2024-04-29 14:15:51,15.08845532,0.0001206,53.2168,82.8525,84.5746,275.5384,0.00011211,1.497e-05,0.0,0 STARLINK-4664,1 53777U 22111E   24120.59435080  .00001497  00000-0  11211-3 0  9999,2 53777  53.2168  82.8525 0001206  84.5746 275.5384 15.08845532 91172,6917.863,95.437,540.563,538.894,0.0
53777.0,STARLINK-4664,PAYLOAD,2024-04-29 20:37:25,15.08833977,0.0001797,53.2178,81.663,85.005,275.1147,0.000153,2.147e-05,0.0,0 STARLINK-4664,1 53777U 22111E   24120.85932012  .00002147  00000-0  15300-3 0  9991,2 53777  53.2178  81.6630 0001797  85.0050 275.1147 15.08833977 90404,6917.899,95.438,541.007,538.521,0.0
53777.0,STARLINK-4664,PAYLOAD,2024-04-29 22:12:48,15.08835149,0.0001738,53.2178,81.3657,85.9621,274.1569,0.00014556,2.029e-05,0.0,0 STARLINK-4664,1 53777U 22111E   24120.92555971  .00002029  00000-0  14556-3 0  9995,2 53777  53.2178  81.3657 0001738  85.9621 274.1569 15.08835149 91229,6917.895,95.438,540.963,538.558,0.0
53777.0,STARLINK-4664,PAYLOAD,2024-04-30 14:06:39,15.08841002,0.0001459,53.2175,78.3942,89.9277,270.1882,0.00010301,1.352e-05,0.0,0 STARLINK-4664,1 53777U 22111E   24121.58795714  .00001352  00000-0  10301-3 0  9991,2 53777  53.2175  78.3942 0001459  89.9277 270.1882 15.08841002 91320,6917.877,95.437,540.752,538.733,0.0
53777.0,STARLINK-4664,PAYLOAD,2024-05-01 04:25:07,15.08851724,0.000148,53.2177,75.7184,92.2687,267.8475,0.00026899,3.997e-05,0.0,0 STARLINK-4664,1 53777U 22111E   24122.18411273  .00003997  00000-0  26899-3 0  9999,2 53777  53.2177  75.7184 0001480  92.2687 267.8475 15.08851724 90600,6917.845,95.437,540.733,538.686,0.0
53777.0,STARLINK-4664,PAYLOAD,2024-05-01 13:57:26,15.08848304,0.0001407,53.217,73.9332,90.5667,269.5486,0.00020612,2.995e-05,0.0,0 STARLINK-4664,1 53777U 22111E   24122.58155297  .00002995  00000-0  20612-3 0  9998,2 53777  53.2170  73.9332 0001407  90.5667 269.5486 15.08848304 91473,6917.855,95.437,540.693,538.747,0.0
53777.0,STARLINK-4664,PAYLOAD,2024-05-01 20:18:58,15.0884621,0.0001526,53.2169,72.7437,89.9619,270.1548,0.00019303,2.786e-05,0.0,0 STARLINK-4664,1 53777U 22111E   24122.84651366  .00002786  00000-0  19303-3 0  9998,2 53777  53.2169  72.7437 0001526  89.9619 270.1548 15.08846210 90701,6917.861,95.437,540.782,538.671,0.0
